alternative_txt,attacktype1,attacktype1_txt,attacktype2,attacktype2_txt,attacktype3,attacktype3_txt,city,claim2,claim3,claimed,claimmode2,claimmode2_txt,claimmode3,claimmode3_txt,claimmode,claimmode_txt,compclaim,corp1,corp2,corp3,country,country_txt,eventid,gname2,gname3,gname,gsubname2,gsubname3,gsubname,guncertain1,guncertain2,guncertain3,iday,imonth,iyear,latitude,location,longitude,motive,multiple,natlty1,natlty1_txt,natlty2,natlty2_txt,natlty3,natlty3_txt,nkill,nkillter,nkillus,nperpcap,nperps,nwound,nwoundte,nwoundus,propcomment,property,propextent,propextent_txt,propvalue,provstate,region,region_txt,related,success,suicide,summary,target1,target2,target3,targsubtype1,targsubtype1_txt,targsubtype2,targsubtype2_txt,targsubtype3,targsubtype3_txt,targtype1,targtype1_txt,targtype2,targtype2_txt,targtype3,targtype3_txt
,3,Bombing/Explosion,,,,,Beijing,,,0,,,,,,,,Tiananmen Square,Civilians,,44,China,200002150003,,,Unknown,,,,0,,,15,2,2000,39.905556,,116.395833,Unknown,0,44,China,44,China,,,1,1,0,0,1,,0,0,,1,4,Unknown,,Beijing (Municipality),4,East Asia,,1,1,"02/15/2000: An unidentified suicide bomber detonated his device in the Tiananmen Square in Beijing, China. The bomber was killed in the attack. Reports did not indicate if there were other injuries and/or casualties.","Tiananmen Square in Beijing, China","Civilians near Tiananmen Square in Beijing, China",,74,Marketplace/Plaza/Square,67,Unnamed Civilian/Unspecified,,,14,Private Citizens & Property,14,Private Citizens & Property,,
,4,Hijacking,,,,,Baotou,,,0,,,,,,,,A Chinese airline,Civilians,,44,China,200009270013,,,Individual,,,,0,,,27,9,2000,40.824868,A Xinhua Airlines flight departing from Baotou and arriving in Beijing,111.757895,Unknown,0,44,China,44,China,,,0,0,0,-99,-99,1,0,0,,0,,,,Inner Mongolia,4,East Asia,,0,0,"9/27/2000: At least one assailant attempted to hijack a Xinhua Airlines flight midair that had departed from Baotou, Inner Mongolia, China, and was scheduled to arrive in Beijing, China.  The hijacker was subdued by crew members on board and the plane safely landed in Jinan, China.  None of the 143 passengers on board were injured in the attack although one pilot was wounded.  The motive behind the attack is unknown.",A Xinhua Airlines flight leaving from Baotou,Civilians on board a Xinhua Airlines flight,,42,Aircraft (not at an airport),67,Unnamed Civilian/Unspecified,,,6,Airports & Aircraft,14,Private Citizens & Property,,
,3,Bombing/Explosion,,,,,Lhasa,,,0,,,,,,,,Unknown,,,44,China,200011050007,,,Unknown,,,,0,,,26,10,2000,29.657978,Outside of a court building in Lhasa,91.1011,"Specific motive is unknown; however, sources do note that the explosion occurred shortly after the appointment of a new party secretary for Tibet.",0,44,China,,,,,0,0,0,0,-99,0,0,0,,0,,,,Tibet,4,East Asia,,1,0,"10/26/2000: An explosion was reported by the Tibet Information Network (TIN) as having occurred in Lhasa, Tibet, China.  No one was harmed in the explosion, believed to have taken place at a court building, and nothing was damaged.  No group claimed responsibility for the attack and the motive is unknown, although TIN does note that the explosion followed the appointment of a new party secretary for Tibet.",Unknown,,,,,,,,,20,Unknown,,,,
,3,Bombing/Explosion,,,,,Wuhan,,,0,,,,,,,,Coffee shop,Civilians,,44,China,200011260007,,,Unknown,,,,0,,,26,11,2000,30.593087,Hankou Shangdao coffee shop in Wuhan City,114.305357,Unknown,0,44,China,44,China,,,0,0,0,0,-99,1,0,0,,0,,,,Hubei,4,East Asia,,1,0,"11/26/2000: A waiter found an explosive device underneath a table in the Hankou Shangdao coffee shop in Wuhan City, China.  After the device was relocated to a parking lot, Mao Jiantung, a bomb expert, attempted to defuse it, but it detonated during the attempt.  Mao Jiantung's right hand was blown off when the device exploded.  No group has claimed responsibility for the attack and the motive is unknown.",Hankou Shangdao coffee shop,Civilians in the vicinity of the coffee shop,,2,Restaurant/Bar/Café,67,Unnamed Civilian/Unspecified,,,1,Business,14,Private Citizens & Property,,
,3,Bombing/Explosion,,,,,Kunming,,,0,,,,,,,,New Century Mansion Department Store,,,44,China,200102040005,,,Unknown,,,,0,,,4,2,2001,25.037721,,102.722202,Unknown,0,44,China,,,,,0,0,0,0,,0,0,0,A men's restroom was slightly damaged.,1,3,Minor (likely < $1 million),,Yunnan (Province),4,East Asia,,0,0,"02/04/2001: Unknown attackers attempted to set off a bomb in the New Century Mansion department store in Kunming, capital of China's Yunnan Province. The bomb’s detonator exploded causing minor damage to the men’s restroom at the store, but failing to set off the bomb next to it. No one was hurt in the bombing. No group claimed responsibility for the attack.",New Century Mansion department store in Kunming,,,7,Retail/Grocery/Bakery,,,,,1,Business,,,,
Other Crime Type,3,Bombing/Explosion,,,,,Shijiazhuang,,,0,,,,,,,,Chinese Textile Factories,Civilians,,44,China,200103160002,,,Unknown,,,,0,,,16,3,2001,38.042307,,114.51486,Unknown,0,44,China,44,China,,,18,0,0,0,,28,0,0,At least one large cotton factory was heavily damaged.,1,2,Major (likely > $1 million but < $1 billion),,Hebei (Province),4,East Asia,,1,0,"03/16/2001: A series of explosions in Shijiazhuang in the Hebei Province of China killed at least eighteen people and injured 28 others. One of the explosions occurred near the residential quarters of the Number Three Cotton Mill in Shijiazhuang. Some locals suspected that the bombings could have been connected with ongoing labor disputes at the factory. According to official government reports, however, a man was trying to extort a ransom in return for stopping the attacks.",Number Three Cotton Mill in Shijiazhuang,Civilians in Shijiazhuang,,5,Industrial/Textiles/Factory,67,Unnamed Civilian/Unspecified,,,1,Business,14,Private Citizens & Property,,
Other Crime Type,3,Bombing/Explosion,,,,,Wuhan,,,0,,,,,,,,Chinese civilians,,,44,China,200107090003,,,Unknown,,,,0,,,9,7,2001,30.593087,Qingshan district,114.305357,Unknown,0,44,China,,,,,0,0,0,4,6,0,0,0,,0,,,,Hubei (Province),4,East Asia,,0,0,"07/09/2001: An attempt to bomb a karaoke bar was thwarted by police in the central Chinese city of Wuhan, and four suspects were arrested. Two of the four explosive devices were found in a handbag carried by one of the suspects. Upon arrest the suspect admitted that two other criminals were hiding nearby. The report did not give any motive for the attempted bombing, and did not report any details on the four suspects.",civilians in a karaoke bar in the central Chinese city of Wuhan,,,2,Restaurant/Bar/Café,,,,,1,Business,,,,
Other Crime Type,7,Facility/Infrastructure Attack,3,Bombing/Explosion,,,Hotan City,,,-9,,,,,,,-9,the Hotan Prefecture Meteorology Organization,,,44,China,200110140002,,,Unknown,,,,0,,,14,10,2001,37.114157,,79.922211,Unknown,0,44,China,,,,,0,0,0,0,,0,0,0,The damage is estimated at 300 thousand Chinese Yuan.,1,3,Minor (likely < $1 million),43000,Xinjiang Uyghur,4,East Asia,,1,0,"10/14/2001: A fire broke out in the Hotan Prefecture meteorology building in the city of Hotan in Xinjiang Autonomous Region, China. The report stated that four separate but simultaneous fires broke out after the detonation of an explosive device. The event was thought to be terrorist-related by officials.",building of  Hotan Prefecture meteorology organization,,,21,Government Building/Facility/Office,,,,,2,Government (General),,,,
Other Crime Type,3,Bombing/Explosion,,,,,Xiashen,,,0,,,,,,,,Civilians,,,44,China,200112140001,,,Unknown,,,,0,,,14,12,2001,21.19172,,110.39807,Unknown,1,44,China,,,,,1,0,0,0,,2,0,0,,1,3,Minor (likely < $1 million),,Guangdong (Province),4,East Asia,"200112140002, 200112140003, 200112140004, 200112140005, 200112140006",1,0,"12/14/2001: A bomb exploded in Xiashan neighborhood in Zhangjiang, China. Two other bombs were detonated in two other nearby neighborhoods. Two people were killed in the bombings and six were injured. It was not certain who was responsible for the attacks.","Civilians in neighborhood of Xiashan in Zhangjiang, China",,,67,Unnamed Civilian/Unspecified,,,,,14,Private Citizens & Property,,,,
Other Crime Type,3,Bombing/Explosion,,,,,Zhanjiang,,,0,,,,,,,,Civilians,,,44,China,200112140002,,,Unknown,,,,0,,,14,12,2001,21.270689,,110.359462,Unknown,1,44,China,,,,,1,0,0,0,,2,0,0,,1,3,Minor (likely < $1 million),,Guangdong (Province),4,East Asia,"200112140001, 200112140003, 200112140004, 200112140005, 200112140006",1,0,"12/14/2001: A bomb exploded in Chikan neighborhood in Zhangjiang, China. Two other bombs were detonated in two other nearby neighborhoods. Two people were killed in the bombings and six were injured. It was not certain who was responsible for the attacks.","Civilians in neighborhood of Chikan in Zhangjiang, China",,,67,Unnamed Civilian/Unspecified,,,,,14,Private Citizens & Property,,,,
Other Crime Type,3,Bombing/Explosion,,,,,Zhanjiang,,,0,,,,,,,,Civilians,,,44,China,200112140003,,,Unknown,,,,0,,,14,12,2001,21.270689,,110.359462,Unknown,1,44,China,,,,,1,0,0,0,,2,0,0,,1,3,Minor (likely < $1 million),,Guangdong (Province),4,East Asia,"200112140001, 200112140002, 200112140004, 200112140005, 200112140006",1,0,"12/14/2001: A bomb exploded in Kaifaqu neighborhood in Zhangjiang, China. Two other bombs were detonated in two other nearby neighborhoods. Two people were killed in the bombings and six were injured. It was not certain who was responsible for the attacks.","Civilians in neighborhood of Kaifaqu in Zhangjiang, China",,,67,Unnamed Civilian/Unspecified,,,,,14,Private Citizens & Property,,,,
Other Crime Type,3,Bombing/Explosion,,,,,Jiangmeng,,,0,,,,,,,,Civilians,,,44,China,200112140004,,,Unknown,,,,0,,,14,12,2001,22.578738,,113.081901,Unknown,1,44,China,,,,,0,0,0,0,,1,0,0,,1,3,Minor (likely < $1 million),,Guangdong (Province),4,East Asia,"200112140001, 200112140002, 200112140003, 200112140005, 200112140006",1,0,"12/14/2001: A bomb exploded in Fengwanli neighborhood in Jiangmen, China. This was one of three near simultaneous bombings. One person was seriously injured in the blasts. It was not certain who was responsible for the attacks.","Civilians in Fengwanli neighborhood in Jiangmen, China",,,67,Unnamed Civilian/Unspecified,,,,,14,Private Citizens & Property,,,,
Other Crime Type,3,Bombing/Explosion,,,,,Jiangmeng,,,0,,,,,,,,Civilians,,,44,China,200112140005,,,Unknown,,,,0,,,14,12,2001,22.578738,,113.081901,Unknown,1,44,China,,,,,0,0,0,0,,1,0,0,,1,3,Minor (likely < $1 million),,Guangdong (Province),4,East Asia,"200112140001, 200112140002, 200112140003, 200112140004, 200112140006",1,0,"12/14/2001: A bomb exploded in Wugangli neighborhood in Jiangmen, China. This was one of three near simultaneous bombings. One person was seriously injured in the blasts. It was not certain who was responsible for the attacks.","Civilians in Wugangli neighborhood in Jiangmen, China",,,67,Unnamed Civilian/Unspecified,,,,,14,Private Citizens & Property,,,,
Other Crime Type,3,Bombing/Explosion,,,,,Jiangmeng,,,0,,,,,,,,Civilians,,,44,China,200112140006,,,Unknown,,,,0,,,14,12,2001,22.578738,,113.081901,Unknown,1,44,China,,,,,0,0,0,0,,1,0,0,,1,3,Minor (likely < $1 million),,Guangdong (Province),4,East Asia,"200112140001, 200112140002, 200112140003, 200112140004, 200112140005",1,0,"12/14/2001: A bomb exploded in Yingbin neighborhood in Jiangmen, China. This was one of three near simultaneous bombings. One person was seriously injured in the blasts. It was not certain who was responsible for the attacks.","Civilians in Yingbin neighborhood in Jiangmen, China",,,67,Unnamed Civilian/Unspecified,,,,,14,Private Citizens & Property,,,,
,3,Bombing/Explosion,,,,,Xian,,,0,,,,,,,,McDonalds,Civilians,,44,China,200112140007,,,Unknown,,,,0,,,14,12,2001,34.264987,,108.944269,Unknown,0,217,United States,44,China,,,2,0,0,0,,27,0,0,,1,2,Major (likely > $1 million but < $1 billion),,Shaanxi (Province),4,East Asia,,1,0,"12/14/2001: An explosion ripped through a McDonald's fast food restaurant in Xian, China. Two people were killed and 27 others injured in the attack. It was not certain who was responsible for the attack.  Although initial reports suggested the attack was perpetrated by a suicide-bomber, later reports indicate that police discovered a detonator and timer at the scene indicating that the perpetrator was not at the scene.","McDonalds in Xian, China","Civilians at the McDonald's in Xian, China",,4,Multinational Corporation,67,Unnamed Civilian/Unspecified,,,1,Business,14,Private Citizens & Property,,
,3,Bombing/Explosion,,,,,Qingdao,,,0,,,,,,,,Carrefour,,,44,China,200112240002,,,Unknown,,,,0,,,24,12,2001,36.06722,,120.382504,Unknown,0,69,France,,,,,0,0,0,,,0,0,0,Extensive damage occurred to the exterior of the store building and to nearby vehicles in the parking lot where the explosion took place.,1,2,Major (likely > $1 million but < $1 billion),,Shandong (Province),4,East Asia,,1,0,"12/24/2001: An explosion ripped through the parking lot of a French retail store, Carrefour, in Qingdao, China. Extensive damage was reported, yet no one was injured in the blast. It was not certain who was responsible for the attack.","Carrefour Outlet in Qingdao, China",,,4,Multinational Corporation,,,,,1,Business,,,,
,3,Bombing/Explosion,,,,,Zhongxiang,,,0,,,,,,,,Civilians,,,44,China,200112280001,,,Unknown,,,,0,,,28,12,2001,31.16782,,112.588121,Unknown,0,44,China,,,,,2,1,0,0,1,1,0,0,,1,4,Unknown,,Hubei (Province),4,East Asia,,0,1,"12/28/2001: A suicide-bomber blew himself up in Zhongxiang, China. One person was killed, and one injured in the attack. The motive of the bomber was not certain.","Civilians in Zhongxiang, China",,,67,Unnamed Civilian/Unspecified,,,,,14,Private Citizens & Property,,,,
Lack of Intentionality,4,Hijacking,,,,,Xiamen,,,1,,,,,8,Personal claim,-9,Xiamen Airlines,,,44,China,200205110007,,,Unknown,,,,0,,,11,5,2002,24.479836,between the southern cities of Shenzhen and Xiamen,118.08942,Unknown,0,44,China,,,,,0,0,0,2,2,0,0,0,,0,,,,Fujian (Province),4,East Asia,,0,0,"05/11/2002: In China, a man hijacked a Xiamen Airlines plane with two knives but was overpowered in minutes. Police, who did not rule out that the man was mentally ill, also arrested a woman in Xiamen who was suspected of being an accomplice.",Xianmen Airlines flight MF8336,,,42,Aircraft (not at an airport),,,,,6,Airports & Aircraft,,,,
,3,Bombing/Explosion,,,,,Guilin,,,0,,,,,,,,Civilians,,,44,China,200210030004,,,Individual,,,,0,,,2,10,2002,25.273566,Central Square in Guilin,110.290195,"Specific motive is unknown; however, the incident occurred during the holiday week of National Day, during which time China was on high alert.",0,44,China,,,,,1,1,0,0,1,18,0,0,,-9,,,,Guangxi,4,East Asia,,1,1,"10/2/2002: An unidentified man detonated a bomb in Central Square in Guilin, Guangxi region, China.  The suicide bomber died in the explosion and 18 people were injured.  The specific motive behind the incident is unknown.  However, the country has been on high alert during the holiday week of National Day.",Civilians in Central Square,,,74,Marketplace/Plaza/Square,,,,,14,Private Citizens & Property,,,,
Other Crime Type,3,Bombing/Explosion,,,,,Yulin,,,0,,,,,,,,A Chinese hotel,Civilians,,44,China,200301150005,,,Unknown,,,,0,,,15,1,2003,22.636352,"Jingbian Hotel in Jingbian county, Yulin city",110.165112,Unknown,0,44,China,44,China,,,1,0,0,0,-99,7,0,0,The hotel was partially destroyed and surrounding buildings were damaged,1,4,Unknown,,Shaanxi,4,East Asia,,1,0,"1/15/2003: A bomb exploded at the Jingbian Hotel in Yulin city, Shaanxi province, China.  At least one person was killed and another seven were injured in the blast that destroyed portions of the hotel and damaged surrounding buildings.  The device was homemade, consisting of chemical fertilizer.  No group claimed responsibility for the incident and the specific motive is unknown.",The Jingbian Hotel in Yulin city,Civilians in the vicinity of the hotel,,8,Hotel/Resort,67,Unnamed Civilian/Unspecified,,,1,Business,14,Private Citizens & Property,,
,3,Bombing/Explosion,,,,,Beijing,,,0,,,,,,,,Chinese civilians,Tsinghua University,,44,China,200302250007,,,Unknown,,,,0,,,25,2,2003,39.905556,,116.395833,Unknown,1,44,China,44,China,,,0,0,0,0,,6,0,0,Several windows were shattered.,1,3,Minor (likely < $1 million),,Beijing (Municipality),4,East Asia,200302250008,1,0,"02/25/2003: At 11:55AM local time, a homemade charcoal gunpowder bomb exploded at the teachers' dining hall at Tsinghua University in Beijing. Glass shards from the blast injured six people. No one was found responsible.",Chinese civilians at Tsinghua University,Tsinghua University Faculty Dining Hall,,49,School/University/Educational Building,49,School/University/Educational Building,,,8,Educational Institution,8,Educational Institution,,
,3,Bombing/Explosion,,,,,Beijing,,,0,,,,,,,,Chinese civilians,Beijing University,,44,China,200302250008,,,Unknown,,,,0,,,25,2,2003,39.905556,,116.395833,Unknown,1,44,China,44,China,,,0,0,0,0,,3,0,0,Several windows and a door were destroyed.,1,3,Minor (likely < $1 million),,Beijing (Municipality),4,East Asia,200302250007,1,0,"02/25/2003: At 1:20PM local time, a homemade bomb exploded at a student dining all at Beijing University. Dining hall windows and a door were destroyed. The Chinese Government vowed to catch those responsible, and dramatically beefed up security around campus, as well as forbidding foreign correspondents access to local reporters' information.",Chinese civilians at Beijing University,Beijing University Student Dining Hall,,49,School/University/Educational Building,49,School/University/Educational Building,,,8,Educational Institution,8,Educational Institution,,
,3,Bombing/Explosion,,,,,Zhengzhou,,,0,,,,,,,,Chinese Railway System,,,44,China,200401230001,,,Unknown,,,,0,,,23,1,2004,34.746611,,113.625355,Unknown,0,44,China,,,,,2,1,0,0,1,3,0,0,,1,3,Minor (likely < $1 million),,Henan (Province),4,East Asia,,1,1,"01/23/2004: A bomb exploded at a railway station in central China, killing two people and injuring four. The bomb went off on the first floor of the ticket hall at Zhengzhou station in Henan Province. It is possible that the attack was perpetrated by a suicide bomber.",Zhengzhou Train Station,,,100,Train/Train Tracks/Trolley,,,,,19,Transportation,,,,
Other Crime Type,3,Bombing/Explosion,,,,,Shenzen,,,0,,,,,,,,Guanlan Movie Theater Square,,,44,China,200407170004,,,Unknown,,,,0,,,17,7,2004,22.543099,,114.057868,Unknown,0,44,China,,,,,2,0,0,0,,2,0,0,,-9,,,,Guangdong (Province),4,East Asia,,1,0,"07/17/2004: Two people were killed and two more wounded in an explosion at the Guanlan Movie Theater Square in Shenzhen, China. The motive for the bombing was not clear. It was reported that the explosive was a 40-centimeter long, tube-shaped metal device, which was similar to a detonator and filled with steel balls inside. Authorities did not detail how the explosive device was ignited.",Guanlan Cinema,,,11,Entertainment/Cultural/Stadium/Casino,,,,,1,Business,,,,
Other Crime Type,3,Bombing/Explosion,,,,,Between Usu City and Karamay City,,,0,,,,,,,,Civilan(s),,,44,China,200501200001,,,Uighur Separatists,,,,0,,,20,1,2005,45.579889,Between Karamay City and Usu City,84.889207,Unknown,0,44,China,,,,,12,0,0,0,,2,0,0,A bus was damaged in the attack.,1,3,Minor (likely < $1 million),-99,Xinjiang Uyghur,4,East Asia,,1,0,01/20/2005: Uighur Islamic separatists were suspected to have bombed a bus traveling from Karamay City to Usu City in China’s Xinjiang region. 12 people were killed and two others injured in the bombing. No group claimed responsibility for the attack.,Civilians traveling in a bus to Usu City,,,99,Bus (excluding tourists),,,,,19,Transportation,,,,
,3,Bombing/Explosion,,,,,Guangyuan,,,0,,,,,,,,Judicial System of Guangyuan Province,,,44,China,200604050024,,,Individual,,,,0,,,5,4,2006,32.435435,,105.843357,Retribution against judge who ruled against him in a contract dispute with his coal business partner,0,44,China,,,,,1,1,0,0,1,1,0,0,There were glass pieces covering an area of more than 200 square meters in the street in front of the building.,1,4,Unknown,,Sichuan (Province),4,East Asia,,1,0,"04/05/2006: A suicide bomber detonated a bomb inside the Guangyuan Intermediate People's Court killing himself and severely injuring Judge Wang Youqin in Guangyuan, China. No group claimed responsibility for the attack.",Guangyuan People's Intermediate Court,,,14,Judge/Attorney/Court,,,,,2,Government (General),,,,
Other Crime Type,4,Hijacking,,,,,Xian,,,1,,,,,9,Other,-9,Tourism,Civilians,,44,China,200803050001,,,Individual,,,,0,,,5,3,2008,34.264987,,108.944269,Unclear.,0,14,Australia,44,China,,,1,1,0,0,1,0,0,0,,0,,,,Shaanxi,4,East Asia,,1,1,"03/05/2008:  Ten travel agents, including an Australian national, were taken hostage as a would be suicide bomber hijacked a bus in Xian, China.  The man identified as Xia Tao, released most of the hostages soon after boarding the bus but the tour guide and one of the hostages remained as hostages.  Shortly after, a Chinese sniper shot dead the captor. His motive wasn't clear.",Travel Agents,Indiscriminate Chinese civilians,,97,Tourist,71,Race/Ethnicity Identified,,,18,Tourists,14,Private Citizens & Property,,
Other Crime Type,3,Bombing/Explosion,,,,,Qinzhou,,,0,,,,,,,,Civilians,Business,,44,China,200803130004,,,Unknown,,,,0,,,13,3,2008,36.684528,,118.479622,Unknown.,0,44,China,44,China,,,2,0,0,0,,36,0,0,,1,3,Minor (likely < $1 million),,Guangxi,4,East Asia,,1,0,"03/13/2008:  Two people were killed in an explosion at a bar in Qinzhou, China.  The blast was caused by what police described as a ""man-made device"".  Thirty-six people were also injured in the blast.  Police did not find any possible motive for the blast, however, some believe in the area that Muslim separatists are behind the explosion.",Chinese civilians.,Bar,,,,2,Restaurant/Bar/Café,,,1,Business,1,Business,,
,3,Bombing/Explosion,,,,,Gartok,,,1,,,,,8,Personal claim,0,,,,44,China,200804050001,,,Unknown,,,,0,,,5,4,2008,31.719386,"The bombing attack took place n an un-named village near the city of Qamdo, Tibet (Xizang) province, China.",80.287588,The specific motive for the attack is unknown or was not reported.,0,44,China,,,,,0,0,0,16,16,0,0,0,The specific property damage that the bombing attack caused was unknown.,1,4,Unknown,,Tibet,4,East Asia,,1,0,"04/05/2008: On Saturday, an IED composed of home-made explosives detonated in an un-named village near the city of Qamdo, Tibet (Xizang) province, China. The blast, whose target was not disclosed, caused property damage but resulted in no casualties. Sixteen monks, who all claimed responsibility for this and two other bombings, were arrested by police on 05/12/2008 and 05/13/2008 in connection with the bombing attacks.",The specific target was unknown.,,,,,,,,,20,Unknown,,,,
,3,Bombing/Explosion,,,,,Gartok,,,1,,,,,8,Personal claim,0,,,,44,China,200804080002,,,Unknown,,,,0,,,8,4,2008,31.719386,"The bombing attack took place n an un-named village near the city of Qamdo, Tibet (Xizang) province, China.",80.287588,The specific motive for the attack is unknown or was not reported.,0,44,China,,,,,0,0,0,16,16,0,0,0,The specific property damage that the bombing attack caused was unknown.,1,4,Unknown,,Tibet,4,East Asia,,1,0,"04/08/2008: On Tuesday, an IED composed of home-made explosives detonated in an un-named village near the city of Qamdo, Tibet (Xizang) province, China. The blast, whose target was not disclosed, caused property damage but resulted in no casualties. Sixteen monks, who all claimed responsibility for this and two other bombings, were arrested by police on 05/12/2008 and 05/13/2008 in connection with the bombing attacks.",The specific target was unknown.,,,,,,,,,20,Unknown,,,,
,7,Facility/Infrastructure Attack,,,,,Shanghai,,,1,,,,,10,Unknown,,,,,44,China,200805050049,,,Eastern Turkistan Islamic Movement (ETIM),,,,1,,,5,5,2008,31.231763,"The attack took place in the Yangpu district of Shanghai, China.",121.484443,The specific motive for the attack is unknown.,0,44,China,,,,,3,0,0,0,-99,12,0,0,The attack caused an unknown amount of property damage.,1,4,Unknown,,Shanghai,4,East Asia,,1,0,"05/05/2008: On Monday at 0900, in Yangpu district of Shanghai, China, an assailant set fire to a passenger bus, killing three civilians, injuring 12 others, and damaging the bus. The East Turkistan Islamic Movement claimed responsibility.",A passenger bus was targeted in the attack.,,,99,Bus (excluding tourists),,,,,19,Transportation,,,,
,3,Bombing/Explosion,,,,,Yiwu,,,0,,,,,,,,,,,44,China,200806110031,,,Unknown,,,,0,,,11,6,2008,29.306841,The attack took place in a public square in Yiwu.,120.075058,The specific motive for the attack is unknown.,0,44,China,,,,,1,0,0,0,-99,35,0,0,It Is unknown if the attack caused any property damage.,-9,4,Unknown,,Zhejiang,4,East Asia,,1,0,"06/11/2008: On Wednesday around 2045, an explosion of a man-made bomb occurred at a public square, killing one and injuring 35 in Yiwu, Zhejiang, China. The public square was a well known trading hub and gathering place for migrant workers in Yiwu city. No group claimed responsibility.",The target was civilians at  a public square.,,,74,Marketplace/Plaza/Square,,,,,14,Private Citizens & Property,,,,
,3,Bombing/Explosion,,,,,Minshan,,,1,,,,,9,Other,0,,,,44,China,200807210003,,,Turkestan Islamic Party,,,,0,,,21,7,2008,25.046078,"The bombing attack took place aboard a Chinese bus at the Minshan bus stop in Kunming, Yunnan province, China.",102.653562,The Kunming blasts came less than three weeks prior to the Beijing Olympics and two days after Yunnan police opened fire and killed two rubber farmers in the Menglian province during a clash that also saw 41 police officers injured.,1,44,China,,,,,1,0,0,0,-99,7,0,0,The bus sustained an unknown amount of damage.,1,3,Minor (likely < $1 million),,Yunnan,4,East Asia,200807210004,1,0,"07/21/2008: On Monday morning at 08:10, a bomb equipped with ammonium nitrate and a time-delay detonator exploded aboard a Chinese bus at the Minshan bus stop in Kunming, Yunnan province, China. This was the second of two bomb blasts which took place within 60 minutes on board Chinese buses in Kunming and killed a total of three civilians and wounded 14. Some residents received phone text messages in the early hours of Monday, warning Kunming residents to avoid buses hours before the bomb explosions took place. The Kunming blasts came less than three weeks prior to the Beijing Olympics and two days after Yunnan police opened fire and killed two rubber farmers in the Menglian province during a clash that also saw 41 police officers injured. On 08/04/2008, the Turkistan Islamic Party (TIP) released a video claiming responsibility for the double bomb blasts, although Chinese authorities rejected the claim.",Civilians aboard a Chinese passenger bus,,,99,Bus (excluding tourists),,,,,19,Transportation,,,,
,3,Bombing/Explosion,,,,,Kunming,,,1,,,,,7,"Posted to website, blog, etc.",0,,,,44,China,200807210004,,,Turkestan Islamic Party,,,,0,,,21,7,2008,25.037721,"The bombing attack took place aboard a Chinese bus at the Panjiawan bus stop in Kunming, Yunnan province, China.",102.722202,The Kunming blasts came less than three weeks prior to the Beijing Olympics and two days after Yunnan police opened fire and killed two rubber farmers in the Menglian province during a clash that also saw 41 police officers injured.,1,44,China,,,,,2,0,0,0,-99,7,0,0,The bus sustained an unknown amount of damage.,1,3,Minor (likely < $1 million),,Yunnan,4,East Asia,200807210003,1,0,"07/21/2008: On Monday morning at 07:10, a bomb equipped with ammonium nitrate and a time-delay detonator exploded aboard a Chinese bus at the Panjiawan bus stop in Kunming, Yunnan province, China. This was the first of two bomb blasts which took place within 60 minutes on board Chinese buses in Kunming and killed a total of three civilians and wounded 14. Some residents received phone text messages in the early hours of Monday, warning Kunming residents to avoid buses hours before the bomb explosions took place. The Kunming blasts came less than three weeks prior to the Beijing Olympics and two days after Yunnan police opened fire and killed two rubber farmers in the Menglian province during a clash that also saw 41 police officers injured. On 08/04/2008, the Turkistan Islamic Party (TIP) released a video claiming responsibility for the double bomb blasts, although Chinese authorities rejected the claim.",Civilians aboard a Chinese passenger bus,,,99,Bus (excluding tourists),,,,,19,Transportation,,,,
,3,Bombing/Explosion,,,,,Qinhuangdao,,,0,,,,,,,,Qinhuangdao Stadium,,,44,China,200808040001,,,Unknown,,,,0,,,4,8,2008,39.935377,The incident occured at the Qinhuangdao Stadium.,119.600492,The specific motive for the attack is unknown.,0,44,China,,,,,0,0,0,0,-99,0,0,0,,0,,,,Beijing,4,East Asia,,0,0,"08/04/2008: On Monday, at an unspecified time, in Beijing, China, a suspected improvised explosive device was reported to have been found in the Qinhuangdao Stadium where the Olympic football matches were due to be held. The centre had reportedly already been swept but the device was found later under a seat. There were no reported casualties. There were no claims of responsibility.",The target was the Qinhuangdao Stadium.,,,21,Government Building/Facility/Office,,,,,2,Government (General),,,,
,8,Unarmed Assault,,,,,Kashgar,,,1,,,,,10,Unknown,0,Chinese Police,,,44,China,200808040004,,,Eastern Turkistan Islamic Movement (ETIM),,,,0,,,4,8,2008,39.4704,The incident occured at the Kashgar district police barracks.,75.989755,The specific motive for the attack is unknown.,0,44,China,,,,,0,0,0,0,2,0,0,0,,-9,,,,Xinjiang Uyghur,4,East Asia,,1,0,"08/04/2008: On Monday, at an unknown time, in Kashgar, Xinjiang, China, two unidentified assailants drove a truck into a group of policemen jogging near the barracks. The attack was claimed by the Eastern Turkistan Islamic Movement. There were no reported casualties in this incident.",The targets were Chinese police.,,,25,Police Security Forces/Officers,,,,,3,Police,,,,
Other Crime Type,2,Armed Assault,,,,,Beijing,,,0,,,,,,,,,,,44,China,200808090002,,,Unknown,,,,0,,,9,8,2008,39.905556,The incident occured at an unspecified Beijing landmark.,116.395833,The specific motive for the attack is unknown.,0,217,United States,,,,,2,1,1,-99,1,1,0,1,,0,,,,Beijing,4,East Asia,,1,0,"08/09/2008: On Saturday, at an unknown time, in Beijing, China, a knife-wielding assailant attacked an American family killing one person and wounding another. There were no claims of responsibility made.",The target were indiscriminate Americans attending the Olympics.,,,71,Race/Ethnicity Identified,,,,,14,Private Citizens & Property,,,,
,3,Bombing/Explosion,,,,,Laoximen,,,0,,,,,,,,Shanghai Public Security Bureau,,,44,China,200808090007,,,Unknown,,,,0,,,9,8,2008,31.220379,The incident occured at the Shanghai Public Security Bureau.,121.482907,The specific motive for the attack is unknown.,0,44,China,,,,,0,0,0,0,-99,0,0,0,,0,,,,Shanghai,4,East Asia,,0,0,"08/09/2008: On Saturday, at an unspecified time, in Shanghai, China, an improvised explosive device was recovered from outside the Shanghai Public Security Bureau. The device was found on a vehicle parked outside the bureau. It was not clear who was responsible. There were no reported casualties.",The presumed target was the Shanghai Public Security Bureau.,,,22,"Police Building (headquarters, station, school)",,,,,3,Police,,,,
,3,Bombing/Explosion,,,,,Kuqa,,,1,,,,,10,Unknown,0,,,,44,China,200808100020,,,Eastern Turkistan Islamic Movement (ETIM),,,,0,,,10,8,2008,41.717906,The incident occured at the Public security bureau.,82.962016,The specific motive for the attack is unknown.,0,44,China,,,,,3,2,0,2,4,2,1,0,"The damage caused, if any, was not stated.",-9,,,,Xinjiang Uyghur,4,East Asia,,1,1,"08/10/2008: On Sunday, at an unknown time, in Kuqa, Xinjiang uygur, china, a group of militants drove a tricycle loaded with explosives into a public security bureau. One militant was shot by police, another blew himself up, and the other two were arrested. The attack was perpetrated by the Eastern Turkistan Islamic Movement.",The target was the Public security bureau.,,,21,Government Building/Facility/Office,,,,,2,Government (General),,,,
,2,Armed Assault,,,,,Yamanya,,,0,,,,,,,,,,,44,China,200808120011,,,Eastern Turkistan Islamic Movement (ETIM),,,,0,,,12,8,2008,39.438028,The incident occured at a police checkpoint.,76.450035,The specific motive for the attack is unknown.,0,44,China,,,,,3,0,0,0,-99,1,0,0,,0,,,,Xinjiang Uyghur,4,East Asia,,1,0,"08/12/2008: On Tuesday, at an unknown time, in Yamanya, Xinjiang uygur, China, three security officers were killed and a fourth was injured during a stabbing attack at a checkpoint. The incident is linked to the Eastern Turkistan Islamic Movement.",The targets were security officers.,,,25,Police Security Forces/Officers,,,,,3,Police,,,,
,3,Bombing/Explosion,,,,,Qinhuangdao,,,0,,,,,,,,,,,44,China,200808130024,,,Unknown,,,,0,,,13,8,2008,39.935377,The incident occured at a building in the Qinhuangdao economic and technological development zone near Beijing.,119.600492,The specific motive for the attack is unknown.,0,44,China,,,,,2,0,0,0,-99,0,0,0,It is unknown how much damage was caused.,-9,,,,Beijing,4,East Asia,,1,0,"08/13/2008: On Wednesday, at an unknown time, in Beijing, China, a suspected improvised explosive device reportedly functioned in a building in the Qinhuangdao economic and technological development zone. Two people were reportedly killed in the incident. Olympic organizers stated that the incident was related to production activities. The two people killed are thought to have worked for the Changpu company. There were no claims of responsibility.",The target was a building in the Qinhuangdao economic and technological development zone near Beijing.,,,,,,,,,1,Business,,,,
,3,Bombing/Explosion,,,,,Jiading,,,0,,,,,,,,Zhen Xin Commercial Arcade,,,44,China,200808150003,,,Unknown,,,,0,,,15,8,2008,31.375602,The incident occured at the Zhen Xin Commercial Arcade in Jiading district of Shanghai.,121.2653,The specific motive for the attack is unknown.,0,44,China,,,,,0,0,0,0,-99,0,0,0,,0,,,,Shanghai,4,East Asia,,0,0,"08/152008: On Friday, at an unspecified time, in Shanghai, China, an improvised explosive device was recovered from Zhen Xin Commercial Arcade in the Jiading district. The device was later rendered safe. A man was detained in connection with the incident. Nobody claimed the responsibility. There were no reported casualties.",The target was the Zhen Xin Commercial Arcade.,,,11,Entertainment/Cultural/Stadium/Casino,,,,,1,Business,,,,
Lack of Intentionality,3,Bombing/Explosion,,,,,Beijing,,,0,,,,,,,,,,,44,China,200808170019,,,Unknown,,,,0,,,17,8,2008,39.905556,The incident occured at the Baimiao Public Security Checkpoint.,116.395833,The specific motive for the attack is unknown.,0,44,China,,,,,0,0,0,0,-99,20,0,0,The extent of the damage caused is unknown.,1,4,Unknown,,Beijing,4,East Asia,,1,0,"08/17/2008: On Sunday, at an unspecified time, in Beijing, China, a truck passing through a checkpoint exploded into flames, injuring 20 people. There were no claims of responsibility.",The target was a security checkpoint.,,,24,Police Checkpoint,,,,,3,Police,,,,
,2,Armed Assault,,,,,Kizilboyi,,,0,,,,,,,,Chinese Police,,,44,China,200808270006,,,Unknown,,,,0,,,27,8,2008,39.702547,The incident occured at a corn field in Kizilboyi town.,75.187923,The specific motive for the attack is unknown.,0,44,China,,,,,2,0,0,0,-99,5,0,0,,0,,,,Xinjiang Uyghur,4,East Asia,,1,0,"08/27/2008: On Wednesday, at around 2120, in in Kizilboyi town, Kashi Prefecture, Xinjiang province, unidentified attackers, armed with knives, ambushed a group of policemen as they passed a corn field. One police officer, and a police assistant were killed, and five others were injured. There were no claims of responsibility.",The targets were Chinese policemen.,,,25,Police Security Forces/Officers,,,,,3,Police,,,,
,3,Bombing/Explosion,,,,,Harbin,,,0,,,,,,,,,,,44,China,200808300001,,,Unknown,,,,0,,,30,8,2008,45.742012,The incident occured on Xianfeng road.,126.618326,The specific motive for the attack is unknown.,0,44,China,,,,,0,0,0,0,-99,2,0,0,The entire bus was destroyed as a result of the fire.,1,2,Major (likely > $1 million but < $1 billion),,Heilongjiang,4,East Asia,,1,0,"08/30/2008: On Saturday, at an unknown time, in  Harbin, Heilongjiang, China, a bus exploded while traveling along the Xianfeng road, injuring two persons. There were no claims of responsibility. The entire bus was destroyed as a result of the fire.",The target was an unspecified public bus.,,,99,Bus (excluding tourists),,,,,19,Transportation,,,,
,3,Bombing/Explosion,,,,,Chenxi,,,0,,,,,,,,,,,44,China,200809010015,,,Unknown,,,,0,,,1,9,2008,28.006343,"The bombing attack took place at a public plaza in Chenxi, Hunan province, China.",110.183928,The specific motive for the attack is unknown.,0,44,China,,,,,1,0,0,0,-99,5,0,0,Unknown damage was reported.,-9,,,,Hunan,4,East Asia,,1,0,"09/01/2008: On Monday, one civilian was killed and five others wounded when unknown assailants detonated a bomb in a public plaza in Chenxi, Hunan, China. No claim of responsibility was made for the incident.",A public plaza,,,74,Marketplace/Plaza/Square,,,,,14,Private Citizens & Property,,,,
,3,Bombing/Explosion,,,,,Ganzi,,,0,,,,,,,,China Police,,,44,China,200903160009,,,Unknown,,,,0,,,16,3,2009,31.622841,The incident occurred at a police station in Ganzi in Sichuan.,99.992607,The specific motive for the attack is unknown.,0,44,China,,,,,0,0,0,0,-99,0,0,0,The police station was damaged.,1,3,Minor (likely < $1 million),,Tibet,4,East Asia,,1,0,"03/16/2009: On Monday just after midnight, a bomb was hurled into police station in a predominantly Tibetan area of western China, in Ganzi, Sichuan, China. The police station was damaged. No casualties were reported. No group claimed responsibility.",A police station was targeted in the incident.,,,22,"Police Building (headquarters, station, school)",,,,,3,Police,,,,
,2,Armed Assault,,,,,Chongqing,,,0,,,,,,,,China Army,,,44,China,200903190015,,,Tibetan separatists,,,,1,,,19,3,2009,29.56301,The attack took place in Chongqing.,106.551557,The specific motive for the attack is unknown.,0,44,China,,,,,1,0,0,0,-99,0,0,0,No property damage was reported.,0,,,,Beijing,4,East Asia,,1,0,"03/19/2009: On Thursday night, in Chongqing, China, armed assailants fired upon and killed a soldier. The assailants also stole the victim's machine gun. No group claimed responsibility, although authorities suspected Tibetan separatists were responsible.",A Chinese soldier was targeted in the incident.,,,33,Army,,,,,4,Military,,,,
,3,Bombing/Explosion,,,,,Urumqi,,,0,,,,,,,,,,,44,China,200904010023,,,Unknown,,,,0,,,1,4,2009,43.825645,The attack took place in Urumqi.,87.616823,The specific motive for the attack is the man wanted his unpaid wages and was turned down.,0,44,China,,,,,1,1,0,0,1,2,0,0,The attack caused an unknown amount of property damage.,1,4,Unknown,,Xinjiang Uyghur,4,East Asia,,1,1,"04/01/2009: On Wednesday afternoon at 1410, a suicide bomber detonated an improvised explosive device in an office building located in Urumqi, Xinjiang province, killing himself and injuring two others. The bomber, Han Wushun, demanded unpaid wages from Xinjiang Beixin Road and Bridge Construction, and had stated that the bomb would detonate if he wasn't paid. The injured men, Yang Tao and Lu Jianzhong, were attempting to escape as the bomb detonated. Yang's face and Lu's hands were injured. No group has claimed responsibility.",The target was the Xinjiang Beixin Road and Bridge Construction company.,,,12,Construction,,,,,1,Business,,,,
,8,Unarmed Assault,,,,,Mong Kok,,,0,,,,,,,,,,,44,China,200905160010,,,Unknown,,,,0,,,16,5,2009,22.32047,The attack occurred a building into crowds of shoppers in the Mong Kok district.,114.171905,The specific motive for the attack is unknown.,0,44,China,,,,,0,0,0,0,-99,30,0,0,It is unknown if the attack caused any property damage.,-9,4,Unknown,,Hong Kong Special Administrative Region (hksar),4,East Asia,,1,0,"05/16/2009: On Saturday, thirty people were treated for injuries in Hong Kong after they were splashed by a corrosive liquid. Two bottles of what is thought to be acid were either thrown or fell from a building into crowds of shoppers in the Mong Kok district. Those who received medical help - 14 women and 16 men - suffered burns to the legs, arms and faces. No groups claimed responsibility.",Civilians,,,67,Unnamed Civilian/Unspecified,,,,,14,Private Citizens & Property,,,,
,8,Unarmed Assault,,,,,Mong Kok,,,0,,,,,,,,,,,44,China,200906080006,,,Unknown,,,,0,,,8,6,2009,22.32047,"The attack took place on Nelson Street and Sai Yeung Choi Street in the Mong Kok district, Hong Kong, China.",114.171905,The specific motive for the attack is unknown.,0,44,China,,,,,0,0,0,0,-99,24,0,0,It is unknown if the attack caused any property damage.,-9,4,Unknown,,Hong Kong Special Administrative Region (hksar),4,East Asia,,1,0,"06/08/2009: On Monday evening at 1950, on Nelson Street and Sai Yeung Choi Street in the Mong Kok district, Hong Kong, China, a bottle containing corrosive liquid, acid, was thrown from the top of a building, injuring 24 pedestrians. No group claimed responsibility.",Civilians,,,67,Unnamed Civilian/Unspecified,,,,,14,Private Citizens & Property,,,,
,2,Armed Assault,7,Facility/Infrastructure Attack,,,Urumqi,,,0,,,,,,,,,,,44,China,200907050020,,,Unknown,,,,0,,,5,7,2009,43.825645,"The attack took place in the streets of Urumqi, Xinjiang uygur, China.",87.616823,The specific motive for the attack is unknown.,0,44,China,,,,,184,0,0,0,-99,,0,0,The attack caused an unknown amount of property damage.,1,4,Unknown,,Xinjiang Uyghur,4,East Asia,,1,0,"07/05/2009: On Sunday, Muslim Uighurs rampaged through the streets and attacked Han Chinese in Urumqi, the capital of China's north-west Xinjiang region. The protestors began attacking ethnic Han pedestrians, burning vehicles and attacking buses with batons and rocks. Sources report that protestors from the Uighur Muslim ethnicity took to the street carrying knives, wooden batons, bricks and stones. Updated reports maintain a death toll of 184, 137 of which were Han Chinese, 46 Uighur, and one of Hui ethnicity. The number of people injured in ethnic violence in China's Urumqi has risen to 1,650. Reports did not say whether any of the dead were killed by security forces.",Han Chinese civilians,,,71,Race/Ethnicity Identified,,,,,14,Private Citizens & Property,,,,
,2,Armed Assault,,,,,Urumqi,,,0,,,,,,,,,,,44,China,200909090025,,,Unknown,,,,0,,,9,9,2009,43.825645,The attack took place in Urumqi.,87.616823,The specific motive for the attack is unknown.,0,44,China,,,,,,0,0,0,-99,,0,0,,0,,,,Xinjiang Uyghur,4,East Asia,,1,0,"09/09/2009: On Wednesday, in Urumqi, Xinjiang Uyghur, China, Police reported 45 suspects had attacked people with hypodermic needles in the past few days. There was a total of 531 assaults reported. No group claimed responsibility.",Chinese Civilians,,,71,Race/Ethnicity Identified,,,,,14,Private Citizens & Property,,,,
,3,Bombing/Explosion,,,,,Aksu,,,0,,,,,,,,,,,44,China,201008190012,,,Unknown,,,,0,,,19,8,2010,41.168779,"The attack took place on a bridge in Aksu City, Xinjiang, China.",80.260605,The specific motive for the attack is unknown.,0,44,China,,,,,7,0,0,0,1,14,0,0,The attack caused an unknown amount of property damage.,1,3,Minor (likely < $1 million),,Xinjiang Uyghur,4,East Asia,,1,0,"08/19/2010: On Thursday morning at 1030, on a bridge in Aksu City, Xinjiang, China, a three wheeled vehicle packed with explosives was driven into a crowd. Seven people were killed and 14 others were injured. Police detained the injured suspect, a member of Xinjiang's Uighur minority, at the site of the blast. The attack caused an unknown amount of property damage. No group claimed responsibility, but it was suspected that Uighur ethnic group was responsible.",Civilians,,,67,Unnamed Civilian/Unspecified,,,,,14,Private Citizens & Property,,,,
,3,Bombing/Explosion,,,,,Kashgar,,,0,,,,,,,,,,,44,China,201107300006,,,Uighur Separatists,,,,1,,,30,7,2011,39.4704,"The attack took place near a market in Kashgar, Xinjiang, China",75.989755,The specific motive for the attack is unknown.,0,44,China,,,,,0,0,0,0,-99,,0,0,The attack caused an unknown amount of property damage to the van and market.,1,3,Minor (likely < $1 million),,Xinjiang Uyghur,4,East Asia,,1,0,"07/30/2011: On Saturday night about 2300, in Kashgar, Xinjiang, China, unidentified militants detonated two improvised explosive devices. One explosion came from a minivan and the other was heard almost simultaneously, originating from the nearby market. It is undetermined if the attack resulted in any casualties, and the attack resulted in an unknown amount of property damages to the van and market. No group claimed responsibility, but the ethnic Uighur militants are suspected of being responsible for the attack.",Civilians,,,67,Unnamed Civilian/Unspecified,,,,,14,Private Citizens & Property,,,,
,2,Armed Assault,,,,,Kashgar,,,0,,,,,,,,,,,44,China,201107300007,,,Uighur Separatists,,,,1,,,30,7,2011,39.4704,"The attack took place in Silk Road City in Kashgar, Xinjiang, China.",75.989755,The specific motive for the attack is unknown.,0,44,China,,,,,8,1,0,1,2,22,0,0,It is unknown if the attack caused any property damage.,-9,,,,Xinjiang Uyghur,4,East Asia,,1,0,"07/30/2011: On Saturday night around 0000 midnight, in the Silk Road City in Kashgar, Xinjiang, China, two suspected armed Uighur militants ambushed a truck and killed its driver before driving the vehicle into a group of bystanders, where they attacked a group of people with knives, killing six more and injuring another 22. One of the assailants was killed by a resulting mob, and the other was detained and handed over to security forces. No group claimed responsibility for this attack, but Uighur militants are suspected.",Civilians,,,67,Unnamed Civilian/Unspecified,,,,,14,Private Citizens & Property,,,,
,2,Armed Assault,7,Facility/Infrastructure Attack,2,Armed Assault,Kashgar,,,0,,,,,,,,,,,44,China,201107310006,,,Uighur Separatists,,,,1,,,31,7,2011,39.4704,"The attack took place at a restaurant in Silk Road City in Kashgar, Xinjiang, China.",75.989755,The specific motive for the attack is unknown.,0,44,China,44,China,,,11,5,0,4,-99,10,0,0,It is unknown if the attack caused any property damage.,-9,,,,Xinjiang Uyghur,4,East Asia,,1,0,"07/31/2011: On Sunday afternoon, in Silk Road City in Kashgar, Xinjiang, China, a group of suspected Uighur militants attacked and killed a restaurant owner and waiter before setting fire to the restaurant. The assailants then stabbed to death another four people and injuring 10 others. Police officials were reported to be among the casualties. The attack resulted in an unknown amount of property damage to the restaurant. Five assailants were killed and another four detained following the incident. No group claimed responsibility for the attack and police believe that the leaders of the group behind the attack were trained in Pakistan at a camp of the separatist East Turkestan Islamic Movement (ETIM).",A restaurant owner and waiter,A restaurant was targeted in the attack.,,2,Restaurant/Bar/Café,2,Restaurant/Bar/Café,,,1,Business,1,Business,,
,3,Bombing/Explosion,,,,,Qamdo,,,0,,,,,,,,Chinese Government,,,44,China,201110270017,,,Unknown,,,,0,,,27,10,2011,31.140969,"The attack occurred inside a local government building in Qamdo, Tibet, China.",97.17202,The specific motive for the attack is unknown.,0,44,China,,,,,0,0,0,0,-99,,0,0,The attack caused an unknown amount of property damage to the building.,1,3,Minor (likely < $1 million),,Tibet,4,East Asia,,1,0,"10/27/2011: On Thursday, in Qamdo, Tibet, China, an improvised explosive device (IED) exploded inside a local government building, injuring an unknown number of people and causing an unknown amount of damage to the building. The IED was planted by unidentified militants. A graffiti exclaiming ""Tibet's Independence"" had been left behind on the building's walls and pamphlets entitled ""Free Tibet"" were left at the scene. No group has claimed responsibility.",The target was a local government building.,,,21,Government Building/Facility/Office,,,,,2,Government (General),,,,
,2,Armed Assault,,,,,Yeching,,,0,,,,,,,,Not Applicable,,,44,China,201202280008,,,Uighur Separatists,,,,0,,,28,2,2012,37.882919,"Incident occurred on Xingfu St. outside of the city in Yeching County, in Kashgar Prefecture",77.413795,"The specific motive is unknown; however, the Uighur minority has long complained about being politically and religiously oppressed by the government. Most of the victims were from the dominant Han population, which Uighurs allege are favored by Chinese policy.",0,44,China,,,,,22,7,0,0,-99,14,0,0,,0,,,,Xinjiang,4,East Asia,,1,0,"02/28/2012: Assailants attacked civilians with knives and hatchets at a market outside Yeching town, Xinjiang province, China. Twenty-two people, including seven assailants, were killed, while 14 other people were injured in the assault. Uighur separatists claimed responsibility for the incident. The Uighur minority had previously complained about state discrimination and policies that put them at an economic disadvantage. Most of the victims were part of the Han majority.",Civilians,,,67,Unnamed Civilian/Unspecified,,,,,14,Private Citizens & Property,,,,
,3,Bombing/Explosion,,,,,Zhaotong,,,0,,,,,,,,Demolition Bureau,,,44,China,201205100002,,,Individual,,,,0,,,10,5,2012,27.338257,,103.717465,"According to the local public security bureau, the bombing was carried out by two individuals who were angry over reduced compensation for land appropriated by the government for a dam construction project.",0,44,China,,,,,4,1,0,0,1,14,0,0,The government building was damaged in this attack.,1,3,Minor (likely < $1 million),-99,Yunnan,4,East Asia,,1,1,"05/10/2012: An explosive device in a backpack detonated in a government demolition office in Zhaotong city, Yunnan province, China. Three people, including the bomber, were killed, and at least 14 people were injured in the blast. No group claimed responsibility for the attack. On August 20, 2012, officials confirmed that there was no suicide bomber; the assailants tricked the man into carrying the explosives into the office.",Employees,,,18,"Government Personnel (excluding police, military)",,,,,2,Government (General),,,,
,4,Hijacking,,,,,Hotan,,,0,,,,,,,,Tianjin Airlines,,,44,China,201206290007,,,Uighur Separatists,,,,0,,,29,6,2012,37.114157,,79.922211,"The specific motive is unknown; however, sources speculated that the attack may have been connected to ethnic tensions in Uighur.  Sources noted that tensions between ethnically Han Chinese authorities and Uighurs have escalated recently due to the storming of an Islamic school by the government.",0,44,China,,,,,0,0,0,6,6,10,0,0,,0,,,,Xinjiang,4,East Asia,,0,0,"06/29/2012: Six assailants attempted to hijack an airborne Tianjin Airlines flight while en route from Hotan to Urumqi, Xinjiang Uighur Autonomous region, China. The hijacking was foiled when the six assailants were overwhelmed by the plane’s passengers and crew members. At least 10 people sustained injuries as a result of the incident. No group claimed responsibility for the incident; however, officials attribute the attack to Uighur separatists.",Airplane,,,42,Aircraft (not at an airport),,,,,6,Airports & Aircraft,,,,
,2,Armed Assault,,,,,Kargilik,,,0,,,,,,,,People's Armed Police,,,44,China,201210010021,,,Unknown,,,,0,,,1,10,2012,37.883071,,77.413693,,0,44,China,,,,,1,1,0,0,1,,0,0,A wall of a military base was damaged in this attack.,1,4,Unknown,-99,Xinjiang,4,East Asia,,1,1,"10/01/2012: An assailant drove a motorcycle into a border guard post in Kargilik county, Xingjiang Uyghur autonomous region, China. No information regarding the exact number of casualties is available; however, sources noted that there were some fatalities and injuries linked to the attack. No group claimed responsibility for the incident.",Border Guard Facility,,,25,Police Security Forces/Officers,,,,,3,Police,,,,
,7,Facility/Infrastructure Attack,,,,,Hotan,,,0,,,,,,,,Chinese Police,,,44,China,201303090017,,,Unknown,,,,0,,,9,3,2013,37.105643,The incident took place in the Gujiang Bage area of the city.,79.944234,"The specific motive is unknown; however, sources note that the incident followed a day after ethnic strife between Uighurs and Han Chinese in China's Xinjiang province, which killed four people.",0,44,China,,,,,,0,0,0,-99,,0,0,It is unknown if the police station was damaged in this attack.,-9,,,,Xinjiang,4,East Asia,,1,0,"03/09/2013: Assailants attacked a police station with a gasoline bomb in Hotan prefecture, Xinjiang Uyghur Autonomous Region, China. Prior to igniting the device, the perpetrators had placed nail strips at the entrance of the station to prevent officers from pursuing them. It is unknown if the attack caused any casualties or damage to the station. No group claimed responsibility for the incident.",Police Station,,,22,"Police Building (headquarters, station, school)",,,,,3,Police,,,,
,2,Armed Assault,,,,,Lukqun,,,0,,,,,,,,Chinese Police,,,44,China,201306260042,,,Unknown,,,,0,,,26,6,2013,42.864288,Incident occurred in the Shanshan county.,90.218627,"The specific motive is unknown; however, sources speculated that the incident is part of a larger trend in sectarian violence between China's Uyghur minority and Han Chinese majority communities.",1,44,China,,,,,5.83,1.83,0,0,-99,3.5,1,0,"An office building, government building, construction site, beauty salon, store, and multiple vehicles were damaged in this attack.",1,4,Unknown,-99,Xinjiang,4,East Asia,"201306260043, 201306260044, 201306260045, 201306260046, 201306260047",1,0,"06/26/2013: Assailants attacked a police station in lukqun township, Xinjiang province, China. This was one of six related attacked in the township on this day. Across the six attacks, 35 people, including 11 assailants, were killed and at least 21 people, including five assailants, were wounded. No group claimed responsibility for this attack.",Police Station,,,22,"Police Building (headquarters, station, school)",,,,,3,Police,,,,
,2,Armed Assault,,,,,Lukqun,,,0,,,,,,,,Chinese Police,,,44,China,201306260043,,,Unknown,,,,0,,,26,6,2013,42.864291,Incident occurred in Shanshan county.,90.218627,"The specific motive is unknown; however, sources speculated that the incident is part of a larger trend in sectarian violence between China's Uyghur minority and Han Chinese majority communities.",1,44,China,,,,,5.83,1.83,0,0,-99,3.5,1,0,"An office building, government building, construction site, beauty salon, store, and multiple vehicles were damaged in this attack.",1,4,Unknown,-99,Xinjiang,4,East Asia,"201306260042, 201306260044, 201306260045, 201306260046, 201306260047",1,0,"06/26/2013: Assailants attacked the Special Patrol Squadron office in lukqun township, Xinjiang province, China. This was one of six related attacked in the township on this day. Across the six attacks, 35 people, including 11 assailants, were killed and at least 21 people, including five assailants, were wounded. No group claimed responsibility for this attack.",Office,,,22,"Police Building (headquarters, station, school)",,,,,3,Police,,,,
,2,Armed Assault,,,,,Lukqun,,,0,,,,,,,,Government of lukqun,,,44,China,201306260044,,,Unknown,,,,0,,,26,6,2013,42.864291,Incident occurred in Shanshan county.,90.218627,"The specific motive is unknown; however, sources speculated that the incident is part of a larger trend in sectarian violence between China's Uyghur minority and Han Chinese majority communities.",1,44,China,,,,,5.83,1.83,0,0,-99,3.5,1,0,"An office building, government building, construction site, beauty salon, store, and multiple vehicles were damaged in this attack.",1,4,Unknown,-99,Xinjiang,4,East Asia,"201306260042, 201306260043, 201306260045, 201306260046, 201306260047",1,0,"06/26/2013: Assailants attacked the building of the government township in lukqun township, Xinjiang province, China. This was one of six related attacked in the township on this day. Across the six attacks, 35 people, including 11 assailants, were killed and at least 21 people, including five assailants, were wounded. No group claimed responsibility for this attack.",Building,,,21,Government Building/Facility/Office,,,,,2,Government (General),,,,
,2,Armed Assault,,,,,Lukqun,,,0,,,,,,,,Unknown,,,44,China,201306260045,,,Unknown,,,,0,,,26,6,2013,42.864291,Incident occurred in Shanshan country.,90.218627,"The specific motive is unknown; however, sources speculated that the incident is part of a larger trend in sectarian violence between China's Uyghur minority and Han Chinese majority communities.",1,44,China,,,,,5.83,1.83,0,0,-99,3.5,1,0,"An office building, government building, construction site, beauty salon, store, and multiple vehicles were damaged in this attack.",1,4,Unknown,-99,Xinjiang,4,East Asia,"201306260042, 201306260043, 201306260044, 201306260046, 201306260047",1,0,"06/26/2013: Assailants attacked a construction site in lukqun township, Xinjiang province, China. This was one of six related attacked in the township on this day. Across the six attacks, 35 people, including 11 assailants, were killed and at least 21 people, including five assailants, were wounded. No group claimed responsibility for this attack.",Construction Site,,,12,Construction,,,,,1,Business,,,,
,2,Armed Assault,,,,,Lukqun,,,0,,,,,,,,Unknown,,,44,China,201306260046,,,Unknown,,,,0,,,26,6,2013,42.864291,Incident occurred in Shanshan county.,90.218627,"The specific motive is unknown; however, sources speculated that the incident is part of a larger trend in sectarian violence between China's Uyghur minority and Han Chinese majority communities.",1,44,China,,,,,5.84,1.84,0,0,-99,3.5,1,0,"An office building, government building, construction site, beauty salon, store, and multiple vehicles were damaged in this attack.",1,4,Unknown,-99,Xinjiang,4,East Asia,"201306260042, 201306260043, 201306260044, 201306260045, 201306260047",1,0,"06/26/2013: Assailants attacked a private store in lukqun township, Xinjiang province, China. This was one of six related attacked in the township on this day. Across the six attacks, 35 people, including 11 assailants, were killed and at least 21 people, including five assailants, were wounded. No group claimed responsibility for this attack.",Private Store,,,7,Retail/Grocery/Bakery,,,,,1,Business,,,,
,2,Armed Assault,,,,,Lukqun,,,0,,,,,,,,Unknown,,,44,China,201306260047,,,Unknown,,,,0,,,26,6,2013,42.864291,Incident occurred in Shanshan county.,90.218627,"The specific motive is unknown; however, sources speculated that the incident is part of a larger trend in sectarian violence between China's Uyghur minority and Han Chinese majority communities.",1,44,China,,,,,5.84,1.84,0,0,-99,3.5,1,0,"An office building, government building, construction site, beauty salon, store, and multiple vehicles were damaged in this attack.",1,4,Unknown,-99,Xinjiang,4,East Asia,"201306260042, 201306260043, 201306260044, 201306260045, 201306260046",1,0,"06/26/2013: Assailants attacked a beauty salon in lukqun township, Xinjiang province, China. This was one of six related attacked in the township on this day. Across the six attacks, 35 people, including 11 assailants, were killed and at least 21 people, including five assailants, were wounded. No group claimed responsibility for this attack.",Beauty Salon,,,7,Retail/Grocery/Bakery,,,,,1,Business,,,,
,2,Armed Assault,,,,,Hotan,,,0,,,,,,,,Chinese Police,,,44,China,201306280045,,,Unknown,,,,0,,,28,6,2013,37.114156,,79.92298,"The specific motive is unknown; however, sources speculated that the incident is part of a larger trend in sectarian violence between China's Uyghur minority and Han Chinese majority communities.",0,44,China,,,,,,,0,0,100,,,0,It is unknown if any property was damaged in this attack.,-9,,,,Xinjiang,4,East Asia,,1,0,"06/28/2013: Approximately 100 assailants attacked a police station in Hotan city, Xinjiang province, China. It is unknown if there were any casualties in the attack. No group claimed responsibility for the incident.",Police Station,,,22,"Police Building (headquarters, station, school)",,,,,3,Police,,,,
,2,Armed Assault,,,,,Beijing,,,1,,,,,7,"Posted to website, blog, etc.",,Tiananmen Square,,,44,China,201310280018,,,Eastern Turkistan Islamic Movement (ETIM),,,,0,,,28,10,2013,39.903948,Incident occurred in Tiananmen Square.,116.391805,"The specific motive is unknown; however, Xinjiang experts speculated that the attack was likely motivated by China's hardline regional policies, which placed severe restrictions on religious practice.  Other sources speculated that the attack was an act of vengeance carried out in response to a police raid on a mosque in the assailants’ hometown exactly one year earlier.",0,44,China,,,,,5,3,0,0,3,40,0,0,A bridge was damaged in this attack.,1,3,Minor (likely < $1 million),-99,Beijing,4,East Asia,,1,0,"10/28/2013: Three assailants drove a vehicle through a crowd in Tiananmen Square, Beijing city, Beijing municipality, China. At least five people, including the three drivers, were killed and 40 others were injured in the attack. The Eastern Turkistan Islamic Movement (ETIM) claimed responsibility for the incident.",Square,,,74,Marketplace/Plaza/Square,,,,,14,Private Citizens & Property,,,,
,3,Bombing/Explosion,,,,,Taiyuan,,,0,,,,,,,,Communist Party of China (CPC),Not Applicable,,44,China,201311060046,,,Unknown,,,,0,,,6,11,2013,37.87059,,112.548879,"The specific motive is unknown; however, sources speculated that Feng Zhijun carried out the attack due to his hostility toward the local government.",0,44,China,44,China,,,1,0,0,1,1,8,0,0,An office was damaged in this attack.,1,3,Minor (likely < $1 million),-99,Shanxi,4,East Asia,,1,0,"11/06/2013: An explosive device detonated outside of the provincial Communist Party office in Taiyuan city, Shanxi province, China. One person was killed and eight were wounded in the attack. No group claimed responsibility for the incident; however, Feng Zhijun was arrested and confessed to the attack.",Party Office,Civilians,,84,Political Party Member/Rally,67,Unnamed Civilian/Unspecified,,,14,Private Citizens & Property,14,Private Citizens & Property,,
,2,Armed Assault,,,,,Kashgar,,,0,,,,,,,,Chinese Police,,,44,China,201311170068,,,Unknown,,,,0,,,17,11,2013,39.463938,,75.987303,,0,44,China,,,,,11,0,0,1,9,2,0,0,It is unknown if any property was damaged in this attack.,-9,,,,Xinjiang,4,East Asia,,1,0,"11/17/2013: Assailants attacked the Kashgar police department in Kashgar city, Xinjiang province, China. Eleven people were killed in the attack and two others were wounded. No group claimed responsibility for the incident.",Police Station,,,22,"Police Building (headquarters, station, school)",,,,,3,Police,,,,
,2,Armed Assault,,,,,Yarkand,,,0,,,,,,,,Xinjiang Provincial Public Security Bureau,,,44,China,201312300037,,,Uighur Separatists,,,,0,,,30,12,2013,38.430134,,77.256216,,0,44,China,,,,,8,8,0,0,8,0,0,0,Police vehicles and a police station were damaged in this attack.,1,3,Minor (likely < $1 million),-99,Xinjiang,4,East Asia,,1,0,"12/30/2013: Nine assailants armed with knives and explosive devices attacked a Xinjiang Provincial Public Security Bureau station in Yarkand city, Xinjiang province, China. At least eight assailants were killed while the other was arrested in the assault. No group claimed responsibility; however, sources attributed the incident to Uighur separatists.",Police Station,,,22,"Police Building (headquarters, station, school)",,,,,3,Police,,,,
,3,Bombing/Explosion,,,,,Kaili,,,0,,,,,,,,Unknown,,,44,China,201401130035,,,Unknown,,,,0,,,13,1,2014,26.581159,Incident occurred in laoshan area,107.981186,,0,44,China,,,,,14,0,0,0,-99,7,0,0,It is unknown if any property was damaged in this attack.,-9,,,,Guizhou,4,East Asia,,1,0,"01/13/2014: An explosive device detonated at an illegal gambling den in laoshan village, Kaili city, Guizhou province, China. At least 14 people were killed and seven were wounded in the blast. No group claimed responsibility for the incident.",Gambling Den,,,11,Entertainment/Cultural/Stadium/Casino,,,,,1,Business,,,,
,3,Bombing/Explosion,,,,,Aksu district,,,0,,,,,,,,Unknown,,,44,China,201401240016,,,Unknown,,,,0,,,24,1,2014,41.244772,The incident took place in Xinhe county.,81.594601,"The specific motive is unknown; however, sources speculated that the attack may have been a result of the continuous repression of the Uighur community and discrimination by the Han Chinese.",1,44,China,,,,,.5,0,0,0,-99,1,0,0,A hair salon was damaged in this attack.,1,3,Minor (likely < $1 million),-99,Xinjiang,4,East Asia,"201401240017, 201401240018, 201401240019",1,0,"01/24/2014: An explosive device detonated at a hair salon in Xinhe county in Aksu district, Xinjiang province, China. This was one of four such attacks in Xinhe on this day. At least one person was killed and at least two other people were wounded between this and another incident. No group claimed responsibility for the attacks.",Hair Salon,,,7,Retail/Grocery/Bakery,,,,,1,Business,,,,
,3,Bombing/Explosion,,,,,Aksu district,,,0,,,,,,,,Unknown,,,44,China,201401240017,,,Unknown,,,,0,,,24,1,2014,41.244772,The incident took place in Xinhe county.,81.594601,"The specific motive is unknown; however, sources speculated that the attack may have been a result of the continuous repression of the Uighur community and discrimination by the Han Chinese.",1,44,China,,,,,.5,0,0,0,-99,1,0,0,It is unknown if any property was damaged in this attack.,-9,,,,Xinjiang,4,East Asia,"201401240016, 201401240018, 201401240019",1,0,"01/24/2014: An explosive device detonated at a vegetable market in Xinhe county in Aksu district, Xinjiang province, China. This was one of four such attacks in Xinhe on this day. At least one person was killed and at least two other people were wounded between this and another incident. No group claimed responsibility for the attacks.",Vegetable Market,,,74,Marketplace/Plaza/Square,,,,,14,Private Citizens & Property,,,,
,3,Bombing/Explosion,,,,,Aksu district,,,0,,,,,,,,Chinese Police,,,44,China,201401240018,,,Unknown,,,,0,,,24,1,2014,41.244772,The incident took place in Xinhe county.,81.594601,"The specific motive is unknown; however, sources speculated that the attack may have been a result of the continuous repression of the Uighur community and discrimination by the Han Chinese.",1,44,China,,,,,2,2,0,0,-99,0,0,0,,0,,,,Xinjiang,4,East Asia,"201401240016, 201401240017, 201401240019",1,0,"01/24/2014: An explosives-laden vehicle detonated after it was surrounded by police in Xinhe county in Aksu district, Xinjiang province, China. At least two people, both of whom were inside the vehicle, were killed as a result of the blast. This was one of four such attacks in Xinhe on this day. No group claimed responsibility for the incidents.",Officers,,,25,Police Security Forces/Officers,,,,,3,Police,,,,
,3,Bombing/Explosion,,,,,Aksu district,,,0,,,,,,,,Chinese Police,,,44,China,201401240019,,,Unknown,,,,0,,,24,1,2014,41.244772,The incident took place in Xinhe county.,81.594601,,1,44,China,,,,,6,6,0,5,-99,1,0,0,It is unknown if any property was damaged in this attack.,-9,,,,Xinjiang,4,East Asia,"201401240016, 201401240017, 201401240018",1,0,"01/24/2014: Assailants threw an explosive device at a group of police officers in Xinhe county in Aksu district, Xinjiang province, China. A firefight ensued, during which at least six assailants were killed and at least one police officer was injured. This was one of four such attacks in Xinhe on this day. No group claimed responsibility for the incidents.",Officers,,,25,Police Security Forces/Officers,,,,,3,Police,,,,
,3,Bombing/Explosion,,,,,Wushi district,,,0,,,,,,,,Xinjiang Provincial Public Security Bureau,Not Applicable,,44,China,201402140023,,,Uighur Separatists,,,,0,,,14,2,2014,41.244772,,79.342833,"The specific motive is unknown; however, sources speculated that the attack may have been related to the oppression of the Uighur community by the Han Chinese.",0,44,China,44,China,,,11,11,0,1,12,4,0,0,Five police vehicles were damaged in this attack.,1,3,Minor (likely < $1 million),-99,Xinjiang,4,East Asia,,1,1,"02/14/2014: Assailants in explosives-laden vehicles carried out an attack in Wushi district, Xinjiang province, China. It is unclear if the explosives detonated as planned or if police officers opened fire, but at least 11 assailants were killed, and two Xinjiang Public Security Bureau (PSB) officers and two civilians were wounded. No group claimed responsibility; however, sources attributed the incident to Uighur separatists.",Patrol,Civilians,,23,Police Patrol (including vehicles and convoys),67,Unnamed Civilian/Unspecified,,,3,Police,14,Private Citizens & Property,,
,2,Armed Assault,,,,,Hong Kong,,,0,,,,,,,,Ming Pao Newspaper,,,44,China,201402260029,,,Unknown,,,,0,,,26,2,2014,22.265228,The incident occurred in the Chai Wan neighborhood of the city.,114.238384,"The specific motive is unknown; however, sources noted that lau was let go from his previous job as a newspaper editor due to his criticism of the Chinese government.",0,89,Hong Kong,,,,,0,0,0,0,2,1,0,0,,0,,,,Hong Kong,4,East Asia,,1,0,"02/26/2014: Two assailants attacked Kevin lau, a former newspaper editor, with a meat cleaver in Chai Wan neighborhood, Hong Kong city, Hong Kong special administrative region, China. lau was wounded in the attack. No group claimed responsibility for the incident.",Former Editor: Kevin lau,,,53,Newspaper Journalist/Staff/Facility,,,,,10,Journalists & Media,,,,
,2,Armed Assault,,,,,Kunming,,,1,,,,,8,Personal claim,,Kunming Railway Station,,,44,China,201403010012,,,Uighur Separatists,,,,0,,,1,3,2014,25.015306,The incident occurred at Kunming Railway Station.,102.722004,,0,44,China,,,,,33,4,0,4,8,143,0,0,,0,,,,Yunnan,4,East Asia,,1,0,"03/01/2014: Assailants attacked a train station in Kunming city, Yunnan province, China. At least four assailants and 29 other people were killed in the attack. Additionally, at least 143 people were wounded. Uighur separatists claimed responsibility for the incident.",Train Station,,,100,Train/Train Tracks/Trolley,,,,,19,Transportation,,,,
,2,Armed Assault,,,,,Urumqi,,,0,,,,,,,,Chinese Police,,,44,China,201403170040,,,Unknown,,,,0,,,17,3,2014,43.801097,The incident occurred in the Shayibak district of the city.,87.595828,,0,44,China,,,,,2,1,0,0,1,0,0,0,,0,,,,Xinjiang,4,East Asia,,1,0,"03/17/2014: An assailant attacked a police officer in Shayibak district, Urumqi city, Xinjiang province, China. The officer was killed in the attack, and the assailant was shot and killed when police opened fire. No group claimed responsibility for the incident.",Officer,,,25,Police Security Forces/Officers,,,,,3,Police,,,,
Other Crime Type,2,Armed Assault,,,,,Huaihua,,,0,,,,,,,,Not Applicable,,,44,China,201403220048,,,Unknown,,,,0,,,22,3,2014,27.554978,,109.998488,,0,44,China,,,,,0,0,0,1,1,3,0,0,,0,,,,Hunan,4,East Asia,,1,0,"03/22/2014: An assailant attacked civilians with a knife on a railway platform in Huaihua, Hunan province, China. Three people were injured in the attack. No group claimed responsibility for the incident.",Civilians,,,67,Unnamed Civilian/Unspecified,,,,,14,Private Citizens & Property,,,,
,2,Armed Assault,,,,,Kargilik district,,,0,,,,,,,,Government of China,,,44,China,201404270052,,,Unknown,,,,0,,,27,4,2014,37.883132,,77.414109,,0,44,China,,,,,3,0,0,0,-99,0,0,0,,0,,,,Xinjiang,4,East Asia,,1,0,"04/27/2014: Assailants stabbed and killed three county officials in Kargilik district, Xinjiang province, China. No group claimed responsibility for the attack.",County Officials,,,18,"Government Personnel (excluding police, military)",,,,,2,Government (General),,,,
,3,Bombing/Explosion,,,,,Urumqi,,,1,,,,,6,Video,,Unknown,,,44,China,201404300038,,,Eastern Turkistan Islamic Movement (ETIM),,,,0,,,30,4,2014,43.825427,,87.617762,,0,44,China,,,,,3,2,0,0,2,79,0,0,It is unknown if any property was damaged in this attack.,-9,,,,Xinjiang,4,East Asia,,1,1,"04/30/2014: Two suicide bombers detonated inside a train station in Urumqi city, Xinjiang province, China. In addition to the two bombers, at least one person was killed and 79 others were wounded in the blast. The Eastern Turkistan Islamic Movement (ETIM) claimed responsibility for the attack.",Train Station,,,100,Train/Train Tracks/Trolley,,,,,19,Transportation,,,,
,2,Armed Assault,,,,,Guangzhou,,,0,,,,,,,,Guangzhou Train Station,,,44,China,201405060018,,,Uighur Separatists,,,,0,,,6,5,2014,23.126288,,113.262464,,0,44,China,,,,,0,0,0,1,4,7,1,0,,0,,,,Guangdong,4,East Asia,,1,0,"05/06/2014: An assailant with a knife attacked a train station in Guangzhou city, Guangdong province, China. Seven people, including one assailant, were injured in the incident. No group claimed responsibility for the attack; however, authorities attributed the incident to Uighur separatists.",Train Station,,,100,Train/Train Tracks/Trolley,,,,,19,Transportation,,,,
,3,Bombing/Explosion,,,,,Guma,,,0,,,,,,,,Chinese Police,,,44,China,201405130052,,,Unknown,,,,0,,,13,5,2014,37.05852,,79.456966,,0,44,China,,,,,0,0,0,1,3,2,0,0,A police station was damaged in this attack.,1,3,Minor (likely < $1 million),-99,Xinjiang,4,East Asia,,1,0,"05/13/2014; Assailants threw two grenades at a police station in Guma county, Hotan prefecture, Xinjiang province, China. Two police officers were injured in the attack. No group claimed responsibility for the incident.",Police Station,,,22,"Police Building (headquarters, station, school)",,,,,3,Police,,,,
,3,Bombing/Explosion,,,,,Urumqi,,,0,,,,,,,,Unknown,,,44,China,201405220012,,,Uighur Separatists,,,,0,,,22,5,2014,43.825592,,87.616848,"The specific motive is unknown; however, sources speculated that the incident may have been a result of the Chinese government's repression of the Uighur community and discrimination by the Han Chinese.",0,44,China,,,,,36,5,0,0,5,94,0,0,"A vehicle, a market, and police security fences were damaged in this attack.",1,3,Minor (likely < $1 million),-99,Xinjiang,4,East Asia,,1,1,"05/22/2014: Five suicide bombers detonated two explosives-laden vehicles at a market in Urumqi city, Xinjiang region, China. In addition to five suicide bombers, 31 people were killed and 94 others were wounded in the blast. No group claimed responsibility for the incident; however, sources attributed the attack to Uighur separatists.",Market,,,74,Marketplace/Plaza/Square,,,,,14,Private Citizens & Property,,,,
,3,Bombing/Explosion,,,,,Yarkand district,,,0,,,,,,,,Chinese Police,,,44,China,201405230045,,,Unknown,,,,0,,,23,5,2014,38.414217,,77.245761,,1,44,China,,,,,,0,0,0,-99,,0,0,Unspecified property was damaged in this attack.,1,3,Minor (likely < $1 million),-99,Xinjiang,4,East Asia,"201405230046, 201405230047, 201405230048, 201405230049",1,0,"05/23/2014: An explosive device detonated outside a police station in Yarkand district, Xinjiang province, China. There were an unknown number of casualties in the blast. This was one of five explosive devices planted in Yarkand district on May 23, 2014; four of which were safely defused. No group claimed responsibility for the incident.",Police Station,,,22,"Police Building (headquarters, station, school)",,,,,3,Police,,,,
,3,Bombing/Explosion,,,,,Yarkand district,,,0,,,,,,,,Chinese Police,,,44,China,201405230046,,,Unknown,,,,0,,,23,5,2014,38.41423,,77.245807,,1,44,China,,,,,0,0,0,0,-99,0,0,0,,0,,,,Xinjiang,4,East Asia,"201405230045, 201405230047, 201405230048, 201405230049",0,0,"05/23/2014: An explosive device was discovered and safely defused outside a police building in Yarkand district, Xinjiang province, China. This was one of five explosive devices planted in Yarkand district on May 23, 2014; four of which were safely defused. No group claimed responsibility for the incident.",Building,,,22,"Police Building (headquarters, station, school)",,,,,3,Police,,,,
,3,Bombing/Explosion,,,,,Yarkand district,,,0,,,,,,,,Chinese Police,,,44,China,201405230047,,,Unknown,,,,0,,,23,5,2014,38.41423,,77.245807,,1,44,China,,,,,0,0,0,0,-99,0,0,0,,0,,,,Xinjiang,4,East Asia,"201405230045, 201405230046, 201405230048, 201405230049",0,0,"05/23/2014: An explosive device was discovered and safely defused outside a police building in Yarkand district, Xinjiang province, China. This was one of five explosive devices planted in Yarkand district on May 23, 2014; four of which were safely defused. No group claimed responsibility for the incident.",Building,,,22,"Police Building (headquarters, station, school)",,,,,3,Police,,,,
,3,Bombing/Explosion,,,,,Yarkand district,,,0,,,,,,,,Chinese Police,,,44,China,201405230048,,,Unknown,,,,0,,,23,5,2014,38.41423,,77.245807,,1,44,China,,,,,0,0,0,0,-99,0,0,0,,0,,,,Xinjiang,4,East Asia,"201405230045, 201405230046, 201405230047, 201405230049",0,0,"05/23/2014: An explosive device was discovered and safely defused outside a police building in Yarkand district, Xinjiang province, China. This was one of five explosive devices planted in Yarkand district on May 23, 2014; four of which were safely defused. No group claimed responsibility for the incident.",Building,,,22,"Police Building (headquarters, station, school)",,,,,3,Police,,,,
,3,Bombing/Explosion,,,,,Yarkand district,,,0,,,,,,,,Unknown,,,44,China,201405230049,,,Unknown,,,,0,,,23,5,2014,38.41423,,77.245807,,1,44,China,,,,,0,0,0,0,-99,0,0,0,,0,,,,Xinjiang,4,East Asia,"201405230045, 201405230046, 201405230047, 201405230048",0,0,"05/23/2014: An explosive device was discovered and safely defused outside a gas station in Yarkand district, Xinjiang province, China. This was one of five explosive devices planted in Yarkand district on May 23, 2014; four of which were safely defused. No group claimed responsibility for the incident.",Gas Station,,,1,Gas/Oil,,,,,1,Business,,,,
Other Crime Type,3,Bombing/Explosion,,,,,Anda,,,1,,,,,8,Personal claim,,Unknown,,,44,China,201406080093,,,Individual,,,,0,,,8,6,2014,46.412161,,125.331597,,0,44,China,,,,,0,0,0,1,1,2,0,0,A restaurant was damaged in this attack.,1,3,Minor (likely < $1 million),-99,Heilongjiang,4,East Asia,,1,0,"06/08/2014: An explosive device detonated targeting a restaurant in Anda city, Heilongjiang province, China. Two police officers were injured in the attack. Authorities arrested an individual identified as Zhu Shibin in connection with the attack.",Restaurant,,,2,Restaurant/Bar/Café,,,,,1,Business,,,,
,2,Armed Assault,,,,,Hotan district,,,1,,,,,8,Personal claim,,Unknown,,,44,China,201406150032,,,Uighur Separatists,,,,0,,,15,6,2014,37.114157,,79.922211,"In his claim of the attack, one of the assailants noted that he was attempting to wage a holy war and attacked the chess hall because he thought the people inside would not put up a resistance.",0,44,China,,,,,2,2,0,1,3,5,1,0,,0,,,,Xinjiang,4,East Asia,,1,0,"06/15/2014: Assailants wielding knives attacked a chess hall in Hotan district, Xinjiang province, China. The people in the hall retaliated; at least two assailants were killed and five victims and assailants were injured in the ensuing clash. Muslim fundamentalists claimed responsibility for the incident. In his claim of the attack, one of the assailants noted that he was attempting to wage a holy war and attacked the chess hall because he thought the people inside would not put up a resistance.",Chess Hall,,,11,Entertainment/Cultural/Stadium/Casino,,,,,1,Business,,,,
,2,Armed Assault,,,,,Karakax district,,,0,,,,,,,,Chinese Police,,,44,China,201406200038,,,Unknown,,,,0,,,20,6,2014,37.277499,,79.72932,"The specific motive is unknown; however, sources speculated that the incident may have been a result of the Chinese government's repression of the Uighur community and discrimination by the Han Chinese.",0,44,China,,,,,5,0,0,0,-99,0,0,0,A building was damaged in this attack.,1,3,Minor (likely < $1 million),-99,Xinjiang,4,East Asia,,1,0,"06/20/2014: Assailants attacked a Chinese Police checkpoint and set a room on fire in Karakax district, Xinjiang province, China. Five police officers were killed in the attack. No group claimed responsibility for the incident.",Checkpoint,,,24,Police Checkpoint,,,,,3,Police,,,,
,3,Bombing/Explosion,,,,,Yecheng district,,,0,,,,,,,,Chinese Police,,,44,China,201406210013,,,Unknown,,,,0,,,21,6,2014,37.880598,,77.417292,"The specific motive is unknown; however, sources speculated that the incident may have been a result of discrimination against the Uighur community by the Han Chinese.",0,44,China,,,,,13,13,0,0,13,3,0,0,A police station was damaged in this attack.,1,3,Minor (likely < $1 million),-99,Xinjiang,4,East Asia,,1,0,"06/21/2014: Assailants drove a truck into a police building and detonated explosive devices in Yecheng district, Xinjiang province, China. Thirteen assailants were killed and three police officers were wounded in the attack. No group claimed responsibility for the incident.",Building,,,22,"Police Building (headquarters, station, school)",,,,,3,Police,,,,
,2,Armed Assault,,,,,Aksu,,,0,,,,,,,,Not Applicable,,,44,China,201407120097,,,Uighur Separatists,,,,0,,,12,7,2014,41.168126,,80.26679,,0,44,China,,,,,5,0,0,0,-99,0,0,0,,0,,,,Xinjiang,4,East Asia,,1,0,"07/12/2014: Assailants attacked a vehicle carrying Han Chinese businesspeople and stabbed them in Aksu city, Xinjiang province, China. Five people were killed in the attack. No group claimed responsibility for the incident; however, sources attributed the attack to Uighur separatists.",Businesspeople,,,77,Laborer (General)/Occupation Identified,,,,,14,Private Citizens & Property,,,,
,3,Bombing/Explosion,,,,,Xining,,,0,,,,,,,,Caojiabao Airport,,,44,China,201407150021,,,Unknown,,,,0,,,15,7,2014,36.61606,,101.779142,,0,44,China,,,,,0,0,0,0,-99,1,0,0,,0,,,,Qinghai,4,East Asia,,1,0,"07/15/2014: An explosive device detonated in the parking lot of Caojiabao Airport in Xining city, Qinghai province, China. One person was injured in the blast. No group claimed responsibility for the incident.",Airport Parking lot,,,44,Airport,,,,,6,Airports & Aircraft,,,,
,9,Unknown,,,,,Aktokay,,,0,,,,,,,,Government of Aktokay,,,44,China,201407180075,,,Uighur Separatists,,,,0,,,18,7,2014,41.184255,The incident occurred in the Uchturpan county of the region.,79.145401,"The specific motive is unknown; however, sources speculated that Nurmemet Rozi may have been targeted for investigating Uighur separatists and their role in recent attacks.",0,44,China,,,,,1,0,0,2,2,0,0,0,,0,,,,Xinjiang,4,East Asia,,1,0,"07/18/2014: Assailants attacked and stabbed Nurmemet Rozi in Aktokay town, Xinjiang province, China. Rozi, the Director of the Justice Department, was killed in the attack. No group claimed responsibility for the incident; however, sources attributed the attack to Uighur separatists.",Director of Justice Department: Nurmemet Rozi,,,18,"Government Personnel (excluding police, military)",,,,,2,Government (General),,,,
,2,Armed Assault,,,,,Elixku,,,0,,,,,,,,Government of China,Chinese Police,,44,China,201407280029,,,Eastern Turkistan Islamic Movement (ETIM),,,,0,,,28,7,2014,38.709876,,77.370471,"The specific motive is unknown; however, sources speculated that the attack may have been the result of the continuous repression of the Uighur community and discrimination by the Han Chinese.",1,44,China,44,China,,,48,29.5,0,0,-99,6.5,,0,Thirty-one vehicles were damaged in this attack.,1,3,Minor (likely < $1 million),-99,Xinjiang,4,East Asia,201407280030,1,0,"07/28/2014: Assailants attacked Government of China offices and a Chinese Police station in Elixku town, Xinjiang province, China. This was one of two related attacks in Xinjiang province on July 28, 2014. In addition to 59 assailants, 37 people were killed and 13 others were wounded across attacks. No group claimed responsibility for the incident; however, sources attributed the attack to the Eastern Turkistan Islamic Movement (ETIM).",Offices,Police Station,,21,Government Building/Facility/Office,22,"Police Building (headquarters, station, school)",,,2,Government (General),3,Police,,
,2,Armed Assault,,,,,Huangdi,,,0,,,,,,,,Not Applicable,Not Applicable,,44,China,201407280030,,,Eastern Turkistan Islamic Movement (ETIM),,,,0,,,28,7,2014,39.51953,,75.94243,"The specific motive is unknown; however, sources speculated that the attack may have been the result of the continuous repression of the Uighur community and discrimination by the Han Chinese.",1,44,China,44,China,,,48,29.5,0,0,-99,6.5,,0,Thirty-one vehicles were damaged in this attack.,1,3,Minor (likely < $1 million),-99,Xinjiang,4,East Asia,201407280029,1,0,"07/28/2014: Assailants attacked civilians and vehicles in Huangdi town, Xinjiang province, China. This was one of two related attacks in Xinjiang province on July 28, 2014. In addition to 59 assailants, 37 people were killed and 13 others were wounded across attacks. No group claimed responsibility for the incident; however, sources attributed the attack to the Eastern Turkistan Islamic Movement (ETIM).",Vehicles,Civilians,,73,Vehicles/Transportation,67,Unnamed Civilian/Unspecified,,,14,Private Citizens & Property,14,Private Citizens & Property,,
,1,Assassination,,,,,Kashgar,,,0,,,,,,,,Id Kah Mosque,,,44,China,201407300031,,,Uighur Separatists,,,,0,,,30,7,2014,39.469409,,75.990067,"The specific motive is unknown; however, sources noted that Jume Tahir was a major supporter of policies in China.",0,44,China,,,,,1,0,0,1,3,0,0,0,,0,,,,Xinjiang,4,East Asia,,1,0,"07/30/2014: Assailants stabbed Jume Tahir in Kashgar city, Xinjiang region, China. Tahir, an imam, was killed in the attack. No group claimed responsibility for the incident; however, sources attributed the attack to Uighur separatists.",Imam: Jume Tahir,,,87,Affiliated Institution,,,,,15,Religious Figures/Institutions,,,,
,2,Armed Assault,,,,,Longkou,,,0,,,,,,,,Unknown,,,44,China,201408200036,,,Unknown,,,,0,,,20,8,2014,37.646312,,120.478149,,0,44,China,,,,,1,0,0,0,1,19,0,0,A bus was damaged in this attack.,1,3,Minor (likely < $1 million),-99,Shandong,4,East Asia,,1,0,"08/20/2014: An assailant set a bus on fire in longkou city, Shandong province, China. One person was killed and 19 others were wounded in the attack. No group claimed responsibility for the incident.",Bus,,,99,Bus (excluding tourists),,,,,19,Transportation,,,,
,3,Bombing/Explosion,,,,,Luntai district,,,0,,,,,,,,Chinese Police,Not Applicable,,44,China,201409210037,,,Uighur Separatists,,,,0,,,21,9,2014,41.776387,,84.250957,"The specific motive is unknown; however, sources suspected that the incident may have been a result of the Chinese government's repression of the Uighur community and discrimination by the Han Chinese.",1,44,China,44,China,,,12.5,10,0,0,40,13.5,,0,A police station was damaged in this attack.,1,3,Minor (likely < $1 million),-99,Xinjiang,4,East Asia,"201409210038, 201409210039, 201409210040",1,0,"09/21/2014: An explosive device detonated near a Chinese Police Station in luntai district, Xinjiang region, China. This was one of four bombings in luntai on the same day. At least 50 people, including 40 assailants, were killed and 54 others were injured across all four attacks. No group claimed responsibility; however, sources attributed the attacks to Mamat Tursun, a Uighur separatist.",Police Station,Civilians,,22,"Police Building (headquarters, station, school)",67,Unnamed Civilian/Unspecified,,,3,Police,14,Private Citizens & Property,,
,3,Bombing/Explosion,,,,,Luntai district,,,0,,,,,,,,Chinese Police,Not Applicable,,44,China,201409210038,,,Uighur Separatists,,,,0,,,21,9,2014,41.776387,,84.250957,"The specific motive is unknown; however, sources suspected that the incident may have been a result of the Chinese government's repression of the Uighur community and discrimination by the Han Chinese.",1,44,China,44,China,,,12.5,10,0,0,-99,13.5,,0,A police station was damaged in this attack.,1,3,Minor (likely < $1 million),-99,Xinjiang,4,East Asia,"201409210037, 201409210039, 201409210040",1,0,"09/21/2014: An explosive device detonated near a Chinese Police Station in luntai district, Xinjiang region, China. This was one of four bombings in luntai on the same day. At least 50 people, including 40 assailants, were killed and 54 others were injured across all four attacks. No group claimed responsibility; however, sources attributed the attacks to Mamat Tursun, a Uighur separatist.",Police Station,Civilians,,22,"Police Building (headquarters, station, school)",67,Unnamed Civilian/Unspecified,,,3,Police,14,Private Citizens & Property,,
,3,Bombing/Explosion,,,,,Luntai district,,,0,,,,,,,,Unknown,,,44,China,201409210039,,,Uighur Separatists,,,,0,,,21,9,2014,41.776387,,84.250957,"The specific motive is unknown; however, sources suspected that the incident may have been a result of the Chinese government's repression of the Uighur community and discrimination by the Han Chinese.",1,44,China,,,,,12.5,10,0,0,-99,13.5,,0,A shop was damaged in this attack.,1,3,Minor (likely < $1 million),-99,Xinjiang,4,East Asia,"201409210037, 201409210038, 201409210040",1,0,"09/21/2014: An explosive device detonated near a market in luntai district, Xinjiang region, China. This was one of four bombings in luntai on the same day. At least 50 people, including 40 assailants, were killed and 54 others were injured across all four attacks. No group claimed responsibility; however, sources attributed the attacks to Mamat Tursun, a Uighur separatist.",Market,,,74,Marketplace/Plaza/Square,,,,,14,Private Citizens & Property,,,,
,3,Bombing/Explosion,,,,,Luntai district,,,0,,,,,,,,Unknown,,,44,China,201409210040,,,Uighur Separatists,,,,0,,,21,9,2014,41.776387,,84.250957,"The specific motive is unknown; however, sources suspected that the incident may have been a result of the Chinese government's repression of the Uighur community and discrimination by the Han Chinese.",1,44,China,,,,,12.5,10,0,0,-99,13.5,,0,A shop was damaged in this attack.,1,3,Minor (likely < $1 million),-99,Xinjiang,4,East Asia,"201409210037, 201409210038, 201409210039",1,0,"09/21/2014: An explosive device detonated near a shop in luntai district, Xinjiang region, China. This was one of four bombings in luntai on the same day. At least 50 people, including 40 assailants, were killed and 54 others were injured across all four attacks. No group claimed responsibility; however, sources attributed the attacks to Mamat Tursun, a Uighur separatist.",Shop,,,7,Retail/Grocery/Bakery,,,,,1,Business,,,,
,2,Armed Assault,,,,,Bachu district,,,0,,,,,,,,Chinese Police,Unknown,,44,China,201410120039,,,Uighur Separatists,,,,0,,,12,10,2014,39.795157,,78.56193,,0,44,China,44,China,,,22,4,0,0,4,24,0,0,It is unknown if any property was damaged in this attack.,-9,,,,Xinjiang,4,East Asia,,1,0,"10/12/2014: Four assailants attacked police officers and civilians at a farmers market with knives and explosives in Bachu district, Kashgar prefecture, Xinjiang region, China. At least 22 people, including four assailants, were killed and 24 people were wounded in the attack. No group claimed responsibility; however, sources attributed the incident to Uighur separatists.",Officers,Farmers' Market,,25,Police Security Forces/Officers,74,Marketplace/Plaza/Square,,,3,Police,14,Private Citizens & Property,,
,2,Armed Assault,,,,,Yarkant,,,0,,,,,,,,Not Applicable,,,44,China,201411280042,,,Unknown,,,,0,,,28,11,2014,38.414217,,77.245761,,0,44,China,,,,,15,11,0,0,-99,14,,0,Vehicles were damaged in this attack.,1,3,Minor (likely < $1 million),-99,Xinjiang,4,East Asia,,1,0,"11/28/2014: Assailants threw explosives devices and attacked people on a commercial street in Yarkant county, Xinjiang region, China. At least fifteen people, including eleven assailants, were killed and fourteen others were wounded in the attack. No group claimed responsibility for the incident.",Commercial Street,,,74,Marketplace/Plaza/Square,,,,,14,Private Citizens & Property,,,,
